start=new Date('2023-06-28T00:00:00.000Z').valueOf();
sats=[{"ELEMENT_SET_NO":"999","PERIOD":"94.735","SITE":"AFETR","OBJECT_ID":"2023-065AQ","REV_AT_EPOCH":"734","EPHEMERIS_TYPE":"0","CENTER_NAME":"EARTH","MEAN_MOTION_DDOT":"0.0000000000000","EPOCH":"2023-06-27T14:00:01.000224","REF_FRAME":"TEME","FILE":"3944070","CLASSIFICATION_TYPE":"U","PERIAPSIS":"504.723","INCLINATION":"42.9957","DECAY_DATE":null,"RA_OF_ASC_NODE":"182.8119","LAUNCH_DATE":"2023-05-14","MEAN_ELEMENT_THEORY":"SGP4","OBJECT_NAME":"STARLINK-6249","ARG_OF_PERICENTER":"282.2254","RCS_SIZE":"LARGE","MEAN_ANOMALY":"100.2251","OBJECT_TYPE":"PAYLOAD","BSTAR":"-0.04781300000000","COUNTRY_CODE":"US","TLE_LINE1":"1 56541U 23065AQ  23178.58334491 -.00969113  00000-0 -47813-1 0  9990","TIME_SYSTEM":"UTC","MEAN_MOTION":"15.20034679","ECCENTRICITY":"0.00014740","GP_ID":"234583346","NORAD_CAT_ID":"56541","SEMIMAJOR_AXIS":"6883.873","TLE_LINE2":"2 56541  42.9957 182.8119 0001474 282.2254 100.2251 15.20034679  7342","APOAPSIS":"506.753","MEAN_MOTION_DOT":"-0.00969113"},{"ELEMENT_SET_NO":"999","PERIOD":"94.759","OBJECT_ID":"2023-065AR","SITE":"AFETR","EPHEMERIS_TYPE":"0","REV_AT_EPOCH":"734","CENTER_NAME":"EARTH","EPOCH":"2023-06-27T14:00:01.000224","MEAN_MOTION_DDOT":"0.0000000000000","FILE":"3944132","REF_FRAME":"TEME","CLASSIFICATION_TYPE":"U","INCLINATION":"42.9956","PERIAPSIS":"505.901","DECAY_DATE":null,"RA_OF_ASC_NODE":"182.8659","LAUNCH_DATE":"2023-05-14","MEAN_ELEMENT_THEORY":"SGP4","OBJECT_NAME":"STARLINK-6266","ARG_OF_PERICENTER":"280.7673","MEAN_ANOMALY":"78.7751","RCS_SIZE":"LARGE","BSTAR":"-0.04842100000000","OBJECT_TYPE":"PAYLOAD","COUNTRY_CODE":"US","TIME_SYSTEM":"UTC","TLE_LINE1":"1 56542U 23065AR  23178.58334491 -.00970102  00000-0 -48421-1 0  9997","ECCENTRICITY":"0.00014880","MEAN_MOTION":"15.19641274","SEMIMAJOR_AXIS":"6885.061","NORAD_CAT_ID":"56542","GP_ID":"234585204","TLE_LINE2":"2 56542  42.9956 182.8659 0001488 280.7673  78.7751 15.19641274  7341","APOAPSIS":"507.950","MEAN_MOTION_DOT":"-0.00970102"},{"REF_FRAME":"TEME","FILE":"3944132","PERIAPSIS":"503.205","INCLINATION":"42.9957","CLASSIFICATION_TYPE":"U","RA_OF_ASC_NODE":"182.7414","DECAY_DATE":null,"ELEMENT_SET_NO":"999","PERIOD":"94.703","REV_AT_EPOCH":"734","EPHEMERIS_TYPE":"0","SITE":"AFETR","OBJECT_ID":"2023-065AS","MEAN_MOTION_DDOT":"0.0000000000000","EPOCH":"2023-06-27T14:00:01.000224","CENTER_NAME":"EARTH","MEAN_MOTION":"15.20546487","ECCENTRICITY":"0.00014360","TLE_LINE2":"2 56543  42.9957 182.7414 0001436 282.0662 129.2836 15.20546487  7345","GP_ID":"234585504","NORAD_CAT_ID":"56543","SEMIMAJOR_AXIS":"6882.328","APOAPSIS":"505.181","MEAN_MOTION_DOT":"-0.00967034","LAUNCH_DATE":"2023-05-14","OBJECT_NAME":"STARLINK-6228","ARG_OF_PERICENTER":"282.0662","MEAN_ELEMENT_THEORY":"SGP4","OBJECT_TYPE":"PAYLOAD","BSTAR":"-0.04699000000000","MEAN_ANOMALY":"129.2836","RCS_SIZE":"LARGE","TLE_LINE1":"1 56543U 23065AS  23178.58334491 -.00967034  00000-0 -46990-1 0  9997","TIME_SYSTEM":"UTC","COUNTRY_CODE":"US"},{"REF_FRAME":"TEME","FILE":"3944132","RA_OF_ASC_NODE":"182.8387","DECAY_DATE":null,"INCLINATION":"42.9958","PERIAPSIS":"505.313","CLASSIFICATION_TYPE":"U","PERIOD":"94.747","ELEMENT_SET_NO":"999","MEAN_MOTION_DDOT":"0.0000000000000","EPOCH":"2023-06-27T14:00:01.000224","CENTER_NAME":"EARTH","REV_AT_EPOCH":"734","EPHEMERIS_TYPE":"0","SITE":"AFETR","OBJECT_ID":"2023-065AT","TLE_LINE2":"2 56544  42.9958 182.8387 0001457 274.7704  96.5539 15.19843217  7340","GP_ID":"234585208","NORAD_CAT_ID":"56544","SEMIMAJOR_AXIS":"6884.451","MEAN_MOTION":"15.19843217","ECCENTRICITY":"0.00014570","MEAN_MOTION_DOT":"-0.00969440","APOAPSIS":"507.319","ARG_OF_PERICENTER":"274.7704","OBJECT_NAME":"STARLINK-6226","MEAN_ELEMENT_THEORY":"SGP4","LAUNCH_DATE":"2023-05-14","TLE_LINE1":"1 56544U 23065AT  23178.58334491 -.00969440  00000-0 -48100-1 0  9996","TIME_SYSTEM":"UTC","COUNTRY_CODE":"US","OBJECT_TYPE":"PAYLOAD","BSTAR":"-0.04810000000000","RCS_SIZE":"LARGE","MEAN_ANOMALY":"96.5539"},{"CENTER_NAME":"EARTH","MEAN_MOTION_DDOT":"0.0000000000000","EPOCH":"2023-06-27T14:00:01.000224","SITE":"AFETR","OBJECT_ID":"2023-065AU","REV_AT_EPOCH":"734","EPHEMERIS_TYPE":"0","ELEMENT_SET_NO":"999","PERIOD":"94.681","DECAY_DATE":null,"RA_OF_ASC_NODE":"182.6965","CLASSIFICATION_TYPE":"U","INCLINATION":"42.9961","PERIAPSIS":"502.170","REF_FRAME":"TEME","FILE":"3944132","COUNTRY_CODE":"US","TLE_LINE1":"1 56545U 23065AU  23178.58334491 -.00965324  00000-0 -46429-1 0  9996","TIME_SYSTEM":"UTC","RCS_SIZE":"LARGE","MEAN_ANOMALY":"145.0461","OBJECT_TYPE":"PAYLOAD","BSTAR":"-0.04642900000000","MEAN_ELEMENT_THEORY":"SGP4","OBJECT_NAME":"STARLINK-6086","ARG_OF_PERICENTER":"285.9511","LAUNCH_DATE":"2023-05-14","MEAN_MOTION_DOT":"-0.00965324","APOAPSIS":"504.149","NORAD_CAT_ID":"56545","GP_ID":"234585205","SEMIMAJOR_AXIS":"6881.295","TLE_LINE2":"2 56545  42.9961 182.6965 0001438 285.9511 145.0461 15.20889086  7344","MEAN_MOTION":"15.20889086","ECCENTRICITY":"0.00014380"},{"MEAN_ANOMALY":"107.4208","RCS_SIZE":"LARGE","OBJECT_TYPE":"PAYLOAD","BSTAR":"-0.04754000000000","COUNTRY_CODE":"US","TLE_LINE1":"1 56546U 23065AV  23178.58334491 -.00967606  00000-0 -47540-1 0  9997","TIME_SYSTEM":"UTC","LAUNCH_DATE":"2023-05-14","MEAN_ELEMENT_THEORY":"SGP4","ARG_OF_PERICENTER":"283.2780","OBJECT_NAME":"STARLINK-6187","APOAPSIS":"506.343","MEAN_MOTION_DOT":"-0.00967606","MEAN_MOTION":"15.20172287","ECCENTRICITY":"0.00014830","NORAD_CAT_ID":"56546","GP_ID":"234585516","SEMIMAJOR_AXIS":"6883.457","TLE_LINE2":"2 56546  42.9958 182.7916 0001483 283.2780 107.4208 15.20172287  7346","SITE":"AFETR","OBJECT_ID":"2023-065AV","REV_AT_EPOCH":"734","EPHEMERIS_TYPE":"0","CENTER_NAME":"EARTH","MEAN_MOTION_DDOT":"0.0000000000000","EPOCH":"2023-06-27T14:00:01.000224","ELEMENT_SET_NO":"999","PERIOD":"94.726","CLASSIFICATION_TYPE":"U","PERIAPSIS":"504.302","INCLINATION":"42.9958","DECAY_DATE":null,"RA_OF_ASC_NODE":"182.7916","REF_FRAME":"TEME","FILE":"3944133"},{"PERIAPSIS":"500.516","INCLINATION":"42.9963","CLASSIFICATION_TYPE":"U","RA_OF_ASC_NODE":"182.6222","DECAY_DATE":null,"REF_FRAME":"TEME","FILE":"3944133","REV_AT_EPOCH":"734","EPHEMERIS_TYPE":"0","SITE":"AFETR","OBJECT_ID":"2023-065AW","MEAN_MOTION_DDOT":"0.0000000000000","EPOCH":"2023-06-27T14:00:01.000224","CENTER_NAME":"EARTH","PERIOD":"94.647","ELEMENT_SET_NO":"999","APOAPSIS":"502.419","MEAN_MOTION_DOT":"-0.00964403","MEAN_MOTION":"15.21450180","ECCENTRICITY":"0.00013830","TLE_LINE2":"2 56547  42.9963 182.6222 0001383 285.7083 175.8578 15.21450180  7345","GP_ID":"234585520","NORAD_CAT_ID":"56547","SEMIMAJOR_AXIS":"6879.603","OBJECT_TYPE":"PAYLOAD","BSTAR":"-0.04561900000000","RCS_SIZE":"LARGE","MEAN_ANOMALY":"175.8578","TLE_LINE1":"1 56547U 23065AW  23178.58334491 -.00964403  00000-0 -45619-1 0  9995","TIME_SYSTEM":"UTC","COUNTRY_CODE":"US","LAUNCH_DATE":"2023-05-14","ARG_OF_PERICENTER":"285.7083","OBJECT_NAME":"STARLINK-6291","MEAN_ELEMENT_THEORY":"SGP4"},{"MEAN_MOTION_DOT":"-0.00966017","APOAPSIS":"504.409","TLE_LINE2":"2 56548  42.9961 182.7082 0001430 284.2548 141.2914 15.20801009  7342","NORAD_CAT_ID":"56548","GP_ID":"234585534","SEMIMAJOR_AXIS":"6881.560","MEAN_MOTION":"15.20801009","ECCENTRICITY":"0.00014300","TLE_LINE1":"1 56548U 23065AX  23178.58334491 -.00966017  00000-0 -46586-1 0  9993","TIME_SYSTEM":"UTC","COUNTRY_CODE":"US","OBJECT_TYPE":"PAYLOAD","BSTAR":"-0.04658600000000","MEAN_ANOMALY":"141.2914","RCS_SIZE":"LARGE","ARG_OF_PERICENTER":"284.2548","OBJECT_NAME":"STARLINK-6244","MEAN_ELEMENT_THEORY":"SGP4","LAUNCH_DATE":"2023-05-14","RA_OF_ASC_NODE":"182.7082","DECAY_DATE":null,"INCLINATION":"42.9961","PERIAPSIS":"502.441","CLASSIFICATION_TYPE":"U","REF_FRAME":"TEME","FILE":"3944134","MEAN_MOTION_DDOT":"0.0000000000000","EPOCH":"2023-06-27T14:00:01.000224","CENTER_NAME":"EARTH","REV_AT_EPOCH":"734","EPHEMERIS_TYPE":"0","SITE":"AFETR","OBJECT_ID":"2023-065AX","ELEMENT_SET_NO":"999","PERIOD":"94.687"},{"MEAN_ELEMENT_THEORY":"SGP4","OBJECT_NAME":"STARLINK-6263","ARG_OF_PERICENTER":"283.0653","LAUNCH_DATE":"2023-05-14","COUNTRY_CODE":"US","TLE_LINE1":"1 56549U 23065AY  23178.58334491 -.00963666  00000-0 -45177-1 0  9996","TIME_SYSTEM":"UTC","MEAN_ANOMALY":"195.4604","RCS_SIZE":"LARGE","OBJECT_TYPE":"PAYLOAD","BSTAR":"-0.04517700000000","GP_ID":"234585237","NORAD_CAT_ID":"56549","SEMIMAJOR_AXIS":"6878.695","TLE_LINE2":"2 56549  42.9966 182.5816 0001349 283.0653 195.4604 15.21751174  7349","MEAN_MOTION":"15.21751174","ECCENTRICITY":"0.00013490","MEAN_MOTION_DOT":"-0.00963666","APOAPSIS":"501.488","ELEMENT_SET_NO":"999","PERIOD":"94.628","CENTER_NAME":"EARTH","MEAN_MOTION_DDOT":"0.0000000000000","EPOCH":"2023-06-27T14:00:01.000224","SITE":"AFETR","OBJECT_ID":"2023-065AY","REV_AT_EPOCH":"734","EPHEMERIS_TYPE":"0","REF_FRAME":"TEME","FILE":"3944134","DECAY_DATE":null,"RA_OF_ASC_NODE":"182.5816","CLASSIFICATION_TYPE":"U","PERIAPSIS":"499.632","INCLINATION":"42.9966"},{"RCS_SIZE":"LARGE","MEAN_ANOMALY":"163.2696","OBJECT_TYPE":"PAYLOAD","BSTAR":"-0.04608400000000","COUNTRY_CODE":"US","TLE_LINE1":"1 56550U 23065AZ  23178.58334491 -.00965310  00000-0 -46084-1 0  9994","TIME_SYSTEM":"UTC","LAUNCH_DATE":"2023-05-14","MEAN_ELEMENT_THEORY":"SGP4","OBJECT_NAME":"STARLINK-6255","ARG_OF_PERICENTER":"281.6219","APOAPSIS":"503.346","MEAN_MOTION_DOT":"-0.00965310","MEAN_MOTION":"15.21141576","ECCENTRICITY":"0.00013780","NORAD_CAT_ID":"56550","GP_ID":"234585532","SEMIMAJOR_AXIS":"6880.533","TLE_LINE2":"2 56550  42.9961 182.6623 0001378 281.6219 163.2696 15.21141576  7340","SITE":"AFETR","OBJECT_ID":"2023-065AZ","REV_AT_EPOCH":"734","EPHEMERIS_TYPE":"0","CENTER_NAME":"EARTH","MEAN_MOTION_DDOT":"0.0000000000000","EPOCH":"2023-06-27T14:00:01.000224","ELEMENT_SET_NO":"999","PERIOD":"94.666","CLASSIFICATION_TYPE":"U","INCLINATION":"42.9961","PERIAPSIS":"501.450","DECAY_DATE":null,"RA_OF_ASC_NODE":"182.6623","REF_FRAME":"TEME","FILE":"3944134"}];
